{
    "links": {
        "self": "http://www.neowsapp.com/rest/v1/neo/3773751?api_key=iIulBulltgU6a56xZRHN4H3l9WmuAYTsLGpBGhQ2"
    },
    "id": "3773751",
    "neo_reference_id": "3773751",
    "name": "(2017 FE157)",
    "designation": "2017 FE157",
    "nasa_jpl_url": "http://ssd.jpl.nasa.gov/sbdb.cgi?sstr=3773751",
    "absolute_magnitude_h": 23.8,
    "estimated_diameter": {
        "kilometers": {
            "estimated_diameter_min": 0.046190746,
            "estimated_diameter_max": 0.1032856481
        },
        "meters": {
            "estimated_diameter_min": 46.1907460282,
            "estimated_diameter_max": 103.2856480504
        },
        "miles": {
            "estimated_diameter_min": 0.0287015901,
            "estimated_diameter_max": 0.0641787064
        },
        "feet": {
            "estimated_diameter_min": 151.544447199,
            "estimated_diameter_max": 338.8636855496
        }
    },
    "is_potentially_hazardous_asteroid": false,
    "close_approach_data": [
        {
            "close_approach_date": "2017-04-29",
            "close_approach_date_full": "2017-Apr-29 12:30",
            "epoch_date_close_approach": 1493469000000,
            "relative_velocity": {
                "kilometers_per_second": "8.5668928436",
                "kilometers_per_hour": "30840.8142370027",
                "miles_per_hour": "19163.2826018754"
            },
            "miss_distance": {
                "astronomical": "0.0470984273",
                "lunar": "18.3212882197",
                "kilometers": "7045824.404429851",
                "miles": "4378072.2710039038"
            },
            "orbiting_body": "Earth"
        },
        {
            "close_approach_date": "2098-07-11",
            "close_approach_date_full": "2098-Jul-11 15:28",
            "epoch_date_close_approach": 4055930880000,
            "relative_velocity": {
                "kilometers_per_second": "10.4862053529",
                "kilometers_per_hour": "37750.3392704152",
                "miles_per_hour": "23456.5927538866"
            },
            "miss_distance": {
                "astronomical": "0.0993700883",
                "lunar": "38.6549643487",
                "kilometers": "14865553.551391921",
                "miles": "9237026.6502176698"
            },
            "orbiting_body": "Mars"
        },
        {
            "close_approach_date": "2103-07-02",
            "close_approach_date_full": "2103-Jul-02 22:42",
            "epoch_date_close_approach": 4212859320000,
            "relative_velocity": {
                "kilometers_per_second": "8.5857831274",
                "kilometers_per_hour": "30908.8192586394",
                "miles_per_hour": "19205.5382776807"
            },
            "miss_distance": {
                "astronomical": "0.049288438",
                "lunar": "19.173202382",
                "kilometers": "7373445.34042706",
                "miles": "4581646.480771028"
            },
            "orbiting_body": "Earth"
        }
    ],
    "orbital_data": {
        "orbit_id": "6",
        "orbit_determination_date": "2017-04-24 06:22:58",
        "first_observation_date": "2017-03-31",
        "last_observation_date": "2017-04-22",
        "data_arc_in_days": 22,
        "observations_used": 48,
        "orbit_uncertainty": "7",
        "minimum_orbit_intersection": ".0432373",
        "jupiter_tisserand_invariant": "4.049",
        "epoch_osculation": "2459000.5",
        "eccentricity": ".4408495191239872",
        "semi_major_axis": "1.722976793578689",
        "inclination": "5.226169968007766",
        "ascending_node_longitude": "68.77752581458661",
        "orbital_period": "826.0713668246672",
        "perihelion_distance": ".9634033026677346",
        "perihelion_argument": "178.4400403926343",
        "aphelion_distance": "2.482550284489643",
        "perihelion_time": "2458721.722784978392",
        "mean_anomaly": "121.4904685457767",
        "mean_motion": ".4357976979444315",
        "equinox": "J2000",
        "orbit_class": {
            "orbit_class_type": "APO",
            "orbit_class_description": "Near-Earth asteroid orbits which cross the Earth’s orbit similar to that of 1862 Apollo",
            "orbit_class_range": "a (semi-major axis) > 1.0 AU; q (perihelion) < 1.017 AU"
        }
    },
    "is_sentry_object": false
}